[{"ORDINAL":"1","COMMENT":"GENERATED VIA SPACETRACK.ORG API","ORIGINATOR":"JSPOC","NORAD_CAT_ID":"36122","OBJECT_NAME":"XIWANG-1 (HOPE-1)","OBJECT_TYPE":"PAYLOAD","CLASSIFICATION_TYPE":"U","INTLDES":"09072B","EPOCH":"2018-10-12 01:26:29","EPOCH_MICROSECONDS":"386176","MEAN_MOTION":"13.16346958","ECCENTRICITY":"0.0007303","INCLINATION":"100.0741","RA_OF_ASC_NODE":"294.2163","ARG_OF_PERICENTER":"198.8905","MEAN_ANOMALY":"161.1958","EPHEMERIS_TYPE":"0","ELEMENT_SET_NO":"999","REV_AT_EPOCH":"42402","BSTAR":"6.6611e-05","MEAN_MOTION_DOT":"-1.7e-07","MEAN_MOTION_DDOT":"0","FILE":"2343959","TLE_LINE0":"0 XIWANG-1 (HOPE-1)","TLE_LINE1":"1 36122U 09072B   18285.06006234 -.00000017  00000-0  66611-4 0  9990","TLE_LINE2":"2 36122 100.0741 294.2163 0007303 198.8905 161.1958 13.16346958424028","OBJECT_ID":"2009-072B","OBJECT_NUMBER":"36122","SEMIMAJOR_AXIS":"7576.842","PERIOD":"109.393","APOGEE":"1204.240","PERIGEE":"1193.174"},{"ORDINAL":"1","COMMENT":"GENERATED VIA SPACETRACK.ORG API","ORIGINATOR":"JSPOC","NORAD_CAT_ID":"37839","OBJECT_NAME":"JUGNU","OBJECT_TYPE":"PAYLOAD","CLASSIFICATION_TYPE":"U","INTLDES":"11058B","EPOCH":"2018-10-11 18:29:10","EPOCH_MICROSECONDS":"434624","MEAN_MOTION":"14.12630882","ECCENTRICITY":"0.0018996","INCLINATION":"19.9621","RA_OF_ASC_NODE":"50.3029","ARG_OF_PERICENTER":"91.6679","MEAN_ANOMALY":"56.5864","EPHEMERIS_TYPE":"0","ELEMENT_SET_NO":"999","REV_AT_EPOCH":"36187","BSTAR":"2.3152e-05","MEAN_MOTION_DOT":"3.09e-06","MEAN_MOTION_DDOT":"0","FILE":"2343806","TLE_LINE0":"0 JUGNU","TLE_LINE1":"1 37839U 11058B   18284.77025966  .00000309  00000-0  23152-4 0  9999","TLE_LINE2":"2 37839  19.9621  50.3029 0018996  91.6679  56.5864 14.12630882361874","OBJECT_ID":"2011-058B","OBJECT_NUMBER":"37839","SEMIMAJOR_AXIS":"7228.519","PERIOD":"101.937","APOGEE":"864.116","PERIGEE":"836.653"},{"ORDINAL":"1","COMMENT":"GENERATED VIA SPACETRACK.ORG API","ORIGINATOR":"JSPOC","NORAD_CAT_ID":"37841","OBJECT_NAME":"SRMSAT","OBJECT_TYPE":"PAYLOAD","CLASSIFICATION_TYPE":"U","INTLDES":"11058D","EPOCH":"2018-10-11 15:44:39","EPOCH_MICROSECONDS":"829056","MEAN_MOTION":"14.10616325","ECCENTRICITY":"0.0011849","INCLINATION":"19.9717","RA_OF_ASC_NODE":"102.6021","ARG_OF_PERICENTER":"330.245","MEAN_ANOMALY":"91.1186","EPHEMERIS_TYPE":"0","ELEMENT_SET_NO":"999","REV_AT_EPOCH":"36134","BSTAR":"2.7373e-05","MEAN_MOTION_DOT":"3.14e-06","MEAN_MOTION_DDOT":"0","FILE":"2343806","TLE_LINE0":"0 SRMSAT","TLE_LINE1":"1 37841U 11058D   18284.65601654  .00000314  00000-0  27373-4 0  9998","TLE_LINE2":"2 37841  19.9717 102.6021 0011849 330.2450  91.1186 14.10616325361343","OBJECT_ID":"2011-058D","OBJECT_NUMBER":"37841","SEMIMAJOR_AXIS":"7235.400","PERIOD":"102.083","APOGEE":"865.838","PERIGEE":"848.692"},{"ORDINAL":"1","COMMENT":"GENERATED VIA SPACETRACK.ORG API","ORIGINATOR":"JSPOC","NORAD_CAT_ID":"37854","OBJECT_NAME":"AUBIESAT-1","OBJECT_TYPE":"PAYLOAD","CLASSIFICATION_TYPE":"U","INTLDES":"11061E","EPOCH":"2018-10-11 20:11:44","EPOCH_MICROSECONDS":"960640","MEAN_MOTION":"15.05800445","ECCENTRICITY":"0.0162554","INCLINATION":"101.7057","RA_OF_ASC_NODE":"49.5598","ARG_OF_PERICENTER":"87.4665","MEAN_ANOMALY":"274.5144","EPHEMERIS_TYPE":"0","ELEMENT_SET_NO":"999","REV_AT_EPOCH":"37893","BSTAR":"0.00010542","MEAN_MOTION_DOT":"1.902e-05","MEAN_MOTION_DDOT":"0","FILE":"2344207","TLE_LINE0":"0 AUBIESAT-1","TLE_LINE1":"1 37854U 11061E   18284.84149260 +.00001902 +00000-0 +10542-3 0  9990","TLE_LINE2":"2 37854 101.7057 049.5598 0162554 087.4665 274.5144 15.05800445378938","OBJECT_ID":"2011-061E","OBJECT_NUMBER":"37854","SEMIMAJOR_AXIS":"6927.186","PERIOD":"95.630","APOGEE":"661.655","PERIGEE":"436.447"},{"ORDINAL":"1","COMMENT":"GENERATED VIA SPACETRACK.ORG API","ORIGINATOR":"JSPOC","NORAD_CAT_ID":"37855","OBJECT_NAME":"M-CUBED\/EXP-1 PRIME","OBJECT_TYPE":"PAYLOAD","CLASSIFICATION_TYPE":"U","INTLDES":"11061F","EPOCH":"2018-10-12 02:43:04","EPOCH_MICROSECONDS":"461312","MEAN_MOTION":"15.04790809","ECCENTRICITY":"0.0175498","INCLINATION":"101.7179","RA_OF_ASC_NODE":"47.4671","ARG_OF_PERICENTER":"96.1353","MEAN_ANOMALY":"265.9884","EPHEMERIS_TYPE":"0","ELEMENT_SET_NO":"999","REV_AT_EPOCH":"37923","BSTAR":"0.0001004","MEAN_MOTION_DOT":"1.839e-05","MEAN_MOTION_DDOT":"0","FILE":"2343967","TLE_LINE0":"0 M-CUBED\/EXP-1 PRIME","TLE_LINE1":"1 37855U 11061F   18285.11324608  .00001839  00000-0  10040-3 0  9995","TLE_LINE2":"2 37855 101.7179  47.4671 0175498  96.1353 265.9884 15.04790809379235","OBJECT_ID":"2011-061F","OBJECT_NUMBER":"37855","SEMIMAJOR_AXIS":"6930.284","PERIOD":"95.694","APOGEE":"673.775","PERIGEE":"430.524"}]